CCSDS_OMM_VERS = 2.0
CREATION_DATE  = 
ORIGINATOR     = 

OBJECT_NAME    = H-2A R/B
OBJECT_ID      = 2006-002B
CENTER_NAME    = EARTH
REF_FRAME      = TEME
TIME_SYSTEM    = UTC
MEAN_ELEMENT_THEORY = SGP/SGP4

EPOCH          = 2026-03-31T23:23:55.022496
MEAN_MOTION    = 15.16929806
ECCENTRICITY   = .0052456
INCLINATION    = 98.2448
RA_OF_ASC_NODE = 239.9293
ARG_OF_PERICENTER = 164.9694
MEAN_ANOMALY   = 195.3111

EPHEMERIS_TYPE = 0
CLASSIFICATION_TYPE = U
NORAD_CAT_ID   = 28932
ELEMENT_SET_NO = 999
REV_AT_EPOCH   = 9781
BSTAR          = .68429E-3
MEAN_MOTION_DOT = .13916E-3
MEAN_MOTION_DDOT = 0

CCSDS_OMM_VERS = 2.0
CREATION_DATE  = 
ORIGINATOR     = 

OBJECT_NAME    = RESURS-DK 1
OBJECT_ID      = 2006-021A
CENTER_NAME    = EARTH
REF_FRAME      = TEME
TIME_SYSTEM    = UTC
MEAN_ELEMENT_THEORY = SGP/SGP4

EPOCH          = 2026-04-01T05:09:24.700608
MEAN_MOTION    = 15.12881914
ECCENTRICITY   = .0001602
INCLINATION    = 69.9337
RA_OF_ASC_NODE = 178.7550
ARG_OF_PERICENTER = 43.5188
MEAN_ANOMALY   = 316.6104

EPHEMERIS_TYPE = 0
CLASSIFICATION_TYPE = U
NORAD_CAT_ID   = 29228
ELEMENT_SET_NO = 999
REV_AT_EPOCH   = 9093
BSTAR          = .13385E-3
MEAN_MOTION_DOT = .2253E-4
MEAN_MOTION_DDOT = 0

CCSDS_OMM_VERS = 2.0
CREATION_DATE  = 
ORIGINATOR     = 

OBJECT_NAME    = CZ-4B R/B
OBJECT_ID      = 2006-046C
CENTER_NAME    = EARTH
REF_FRAME      = TEME
TIME_SYSTEM    = UTC
MEAN_ELEMENT_THEORY = SGP/SGP4

EPOCH          = 2026-04-01T02:26:42.932256
MEAN_MOTION    = 15.17135934
ECCENTRICITY   = .0033018
INCLINATION    = 97.5547
RA_OF_ASC_NODE = 135.9485
ARG_OF_PERICENTER = 187.0489
MEAN_ANOMALY   = 173.0284

EPHEMERIS_TYPE = 0
CLASSIFICATION_TYPE = U
NORAD_CAT_ID   = 29507
ELEMENT_SET_NO = 999
REV_AT_EPOCH   = 6344
BSTAR          = .29651E-3
MEAN_MOTION_DOT = .5894E-4
MEAN_MOTION_DDOT = 0

CCSDS_OMM_VERS = 2.0
CREATION_DATE  = 
ORIGINATOR     = 

OBJECT_NAME    = CZ-2C R/B
OBJECT_ID      = 2007-010B
CENTER_NAME    = EARTH
REF_FRAME      = TEME
TIME_SYSTEM    = UTC
MEAN_ELEMENT_THEORY = SGP/SGP4

EPOCH          = 2026-04-01T04:47:18.813984
MEAN_MOTION    = 14.20254453
ECCENTRICITY   = .0058183
INCLINATION    = 98.4001
RA_OF_ASC_NODE = 203.3527
ARG_OF_PERICENTER = 227.9459
MEAN_ANOMALY   = 131.6760

EPHEMERIS_TYPE = 0
CLASSIFICATION_TYPE = U
NORAD_CAT_ID   = 31114
ELEMENT_SET_NO = 999
REV_AT_EPOCH   = 98291
BSTAR          = .92344E-4
MEAN_MOTION_DOT = .159E-5
MEAN_MOTION_DDOT = 0

CCSDS_OMM_VERS = 2.0
CREATION_DATE  = 
ORIGINATOR     = 

OBJECT_NAME    = COSMO-SKYMED 1
OBJECT_ID      = 2007-023A
CENTER_NAME    = EARTH
REF_FRAME      = TEME
TIME_SYSTEM    = UTC
MEAN_ELEMENT_THEORY = SGP/SGP4

EPOCH          = 2026-04-01T04:41:58.291584
MEAN_MOTION    = 14.96699087
ECCENTRICITY   = .000126
INCLINATION    = 97.8867
RA_OF_ASC_NODE = 282.4118
ARG_OF_PERICENTER = 102.9798
MEAN_ANOMALY   = 257.1564

EPHEMERIS_TYPE = 0
CLASSIFICATION_TYPE = U
NORAD_CAT_ID   = 31598
ELEMENT_SET_NO = 999
REV_AT_EPOCH   = 1827
BSTAR          = .32741E-3
MEAN_MOTION_DOT = .3679E-4
MEAN_MOTION_DDOT = 0

CCSDS_OMM_VERS = 2.0
CREATION_DATE  = 
ORIGINATOR     = 

OBJECT_NAME    = COSMOS 2428
OBJECT_ID      = 2007-029A
CENTER_NAME    = EARTH
REF_FRAME      = TEME
TIME_SYSTEM    = UTC
MEAN_ELEMENT_THEORY = SGP/SGP4

EPOCH          = 2026-04-01T04:32:19.333824
MEAN_MOTION    = 14.12948535
ECCENTRICITY   = .0009712
INCLINATION    = 70.9427
RA_OF_ASC_NODE = 156.1219
ARG_OF_PERICENTER = 253.7608
MEAN_ANOMALY   = 106.2445

EPHEMERIS_TYPE = 0
CLASSIFICATION_TYPE = U
NORAD_CAT_ID   = 31792
ELEMENT_SET_NO = 999
REV_AT_EPOCH   = 96727
BSTAR          = .89624E-5
MEAN_MOTION_DOT = -.31E-6
MEAN_MOTION_DDOT = 0

CCSDS_OMM_VERS = 2.0
CREATION_DATE  = 
ORIGINATOR     = 

OBJECT_NAME    = SL-16 R/B
OBJECT_ID      = 2007-029B
CENTER_NAME    = EARTH
REF_FRAME      = TEME
TIME_SYSTEM    = UTC
MEAN_ELEMENT_THEORY = SGP/SGP4

EPOCH          = 2026-04-01T04:31:23.846016
MEAN_MOTION    = 14.14843664
ECCENTRICITY   = .0002838
INCLINATION    = 70.9744
RA_OF_ASC_NODE = 125.0921
ARG_OF_PERICENTER = 277.6928
MEAN_ANOMALY   = 146.7352

EPHEMERIS_TYPE = 0
CLASSIFICATION_TYPE = U
NORAD_CAT_ID   = 31793
ELEMENT_SET_NO = 999
REV_AT_EPOCH   = 96855
BSTAR          = -.12436E-4
MEAN_MOTION_DOT = -.72E-6
MEAN_MOTION_DDOT = 0

CCSDS_OMM_VERS = 2.0
CREATION_DATE  = 
ORIGINATOR     = 

OBJECT_NAME    = KORONAS-FOTON
OBJECT_ID      = 2009-003A
CENTER_NAME    = EARTH
REF_FRAME      = TEME
TIME_SYSTEM    = UTC
MEAN_ELEMENT_THEORY = SGP/SGP4

EPOCH          = 2026-04-01T04:39:10.096704
MEAN_MOTION    = 15.43941807
ECCENTRICITY   = .0011643
INCLINATION    = 82.4277
RA_OF_ASC_NODE = 252.4676
ARG_OF_PERICENTER = 76.6779
MEAN_ANOMALY   = 283.5766

EPHEMERIS_TYPE = 0
CLASSIFICATION_TYPE = U
NORAD_CAT_ID   = 33504
ELEMENT_SET_NO = 999
REV_AT_EPOCH   = 94921
BSTAR          = .31405E-3
MEAN_MOTION_DOT = .1436E-3
MEAN_MOTION_DDOT = 0

CCSDS_OMM_VERS = 2.0
CREATION_DATE  = 
ORIGINATOR     = 

OBJECT_NAME    = CZ-2C R/B
OBJECT_ID      = 2011-030B
CENTER_NAME    = EARTH
REF_FRAME      = TEME
TIME_SYSTEM    = UTC
MEAN_ELEMENT_THEORY = SGP/SGP4

EPOCH          = 2026-04-01T03:57:11.419200
MEAN_MOTION    = 14.81301938
ECCENTRICITY   = .0050971
INCLINATION    = 97.8581
RA_OF_ASC_NODE = 47.9848
ARG_OF_PERICENTER = 277.5719
MEAN_ANOMALY   = 93.9538

EPHEMERIS_TYPE = 0
CLASSIFICATION_TYPE = U
NORAD_CAT_ID   = 37731
ELEMENT_SET_NO = 999
REV_AT_EPOCH   = 79342
BSTAR          = .2429E-3
MEAN_MOTION_DOT = .1882E-4
MEAN_MOTION_DDOT = 0

CCSDS_OMM_VERS = 2.0
CREATION_DATE  = 
ORIGINATOR     = 

OBJECT_NAME    = H-2A R/B
OBJECT_ID      = 2012-025E
CENTER_NAME    = EARTH
REF_FRAME      = TEME
TIME_SYSTEM    = UTC
MEAN_ELEMENT_THEORY = SGP/SGP4

EPOCH          = 2026-04-01T03:30:59.449824
MEAN_MOTION    = 14.95328055
ECCENTRICITY   = .0042932
INCLINATION    = 98.4770
RA_OF_ASC_NODE = 59.9985
ARG_OF_PERICENTER = 238.4797
MEAN_ANOMALY   = 121.2224

EPHEMERIS_TYPE = 0
CLASSIFICATION_TYPE = U
NORAD_CAT_ID   = 38341
ELEMENT_SET_NO = 999
REV_AT_EPOCH   = 75157
BSTAR          = .30536E-3
MEAN_MOTION_DOT = .3359E-4
MEAN_MOTION_DDOT = 0

CCSDS_OMM_VERS = 2.0
CREATION_DATE  = 
ORIGINATOR     = 

OBJECT_NAME    = SHIJIAN-16 (SJ-16)
OBJECT_ID      = 2013-057A
CENTER_NAME    = EARTH
REF_FRAME      = TEME
TIME_SYSTEM    = UTC
MEAN_ELEMENT_THEORY = SGP/SGP4

EPOCH          = 2026-04-01T05:17:26.003040
MEAN_MOTION    = 14.92430618
ECCENTRICITY   = .0015359
INCLINATION    = 74.9721
RA_OF_ASC_NODE = 142.4367
ARG_OF_PERICENTER = 54.0947
MEAN_ANOMALY   = 306.1664

EPHEMERIS_TYPE = 0
CLASSIFICATION_TYPE = U
NORAD_CAT_ID   = 39358
ELEMENT_SET_NO = 999
REV_AT_EPOCH   = 67486
BSTAR          = .12784E-3
MEAN_MOTION_DOT = .1284E-4
MEAN_MOTION_DDOT = 0

CCSDS_OMM_VERS = 2.0
CREATION_DATE  = 
ORIGINATOR     = 

OBJECT_NAME    = SL-4 R/B
OBJECT_ID      = 2014-021B
CENTER_NAME    = EARTH
REF_FRAME      = TEME
TIME_SYSTEM    = UTC
MEAN_ELEMENT_THEORY = SGP/SGP4

EPOCH          = 2026-04-01T02:06:39.086496
MEAN_MOTION    = 15.39993158
ECCENTRICITY   = .0094909
INCLINATION    = 51.6059
RA_OF_ASC_NODE = 227.9446
ARG_OF_PERICENTER = 184.6117
MEAN_ANOMALY   = 175.4003

EPHEMERIS_TYPE = 0
CLASSIFICATION_TYPE = U
NORAD_CAT_ID   = 39679
ELEMENT_SET_NO = 999
REV_AT_EPOCH   = 65972
BSTAR          = .47028E-3
MEAN_MOTION_DOT = .21974E-3
MEAN_MOTION_DDOT = 0

